GLOBALSTAR M068         
1 32266U 07048D   24128.68971865 -.00000037  00000+0  36889-3 0  9992
2 32266  51.9872  98.3086 0001025 344.3638 188.8305 12.62787990766324
GLOBALSTAR M079         
1 37188U 10054A   24128.85292705 -.00000093  00000+0  58295-4 0  9997
2 37188  52.0039 293.6886 0001020 112.9935  34.2630 12.62269341625268
GLOBALSTAR M074         
1 37189U 10054B   24128.77070971 -.00000100  00000+0  22051-4 0  9998
2 37189  52.0017 293.3251 0000745 109.5264 263.2273 12.62268091625862
GLOBALSTAR M076         
1 37190U 10054C   24128.65333075 -.00000075  00000+0  16205-3 0  9998
2 37190  52.0028 293.8143 0000940 140.4273 300.1781 12.62278347625569
GLOBALSTAR M077         
1 37191U 10054D   24128.73439517 -.00000095  00000+0  46979-4 0  9990
2 37191  52.0067 250.3086 0000573 130.4418  17.3418 12.62272398625945
GLOBALSTAR M075         
1 37192U 10054E   24128.91006853 -.00000078  00000+0  14621-3 0  9993
2 37192  51.9961 335.5170 0000940  94.2221  12.7522 12.62273607624829
GLOBALSTAR M073         
1 37193U 10054F   24128.76067519 -.00000099  00000+0  27965-4 0  9992
2 37193  52.0054 249.4812 0000703 133.0359  14.1689 12.62264630626639
GLOBALSTAR M083         
1 37739U 11033A   24128.52703388 -.00000068  00000+0  20003-3 0  9992
2 37739  51.9843 199.4778 0000455 101.8053   4.2148 12.62269814595625
GLOBALSTAR M088         
1 37740U 11033B   24128.67329241 -.00000105  00000+0 -89710-5 0  9997
2 37740  51.9717 104.8615 0000531  61.4950 109.9572 12.62267906591180
GLOBALSTAR M091         
1 37741U 11033C   24128.60746686 -.00000112  00000+0 -48319-4 0  9994
2 37741  52.0005  67.8922 0000870  61.8754 109.6791 12.62262151592227
GLOBALSTAR M085         
1 37742U 11033D   24128.89091319 -.00000079  00000+0  14019-3 0  9992
2 37742  51.9893  18.4279 0001017  76.0408   4.5272 12.62270486592515
GLOBALSTAR M081         
1 37743U 11033E   24128.91716583 -.00000076  00000+0  15422-3 0  9999
2 37743  51.9982  20.8851 0001004  87.6885 351.9854 12.62264150592663
GLOBALSTAR M089         
1 37744U 11033F   24128.88361368 -.00000077  00000+0  14776-3 0  9995
2 37744  51.9944 335.2946 0000724 118.5213 347.3643 12.62263146593500
GLOBALSTAR M084         
1 38040U 11080A   24128.67190198 -.00000063  00000+0  22914-3 0  9993
2 38040  51.9994 203.0086 0000376 172.1160 353.0811 12.62262017571459
GLOBALSTAR M080         
1 38041U 11080B   24128.55411583 -.00000067  00000+0  20647-3 0  9990
2 38041  52.0047 204.8331 0000661 176.2691 292.3921 12.62272157571569
GLOBALSTAR M082         
1 38042U 11080C   24128.38917009 -.00000060  00000+0  24599-3 0  9999
2 38042  52.0053 160.7393 0000605  36.3242 342.0235 12.62269317572253
GLOBALSTAR M092         
1 38043U 11080D   24128.59888385 -.00000090  00000+0  78818-4 0  9994
2 38043  52.0077 250.4525 0000406 132.5742 240.7761 12.62279870570731
GLOBALSTAR M090         
1 38044U 11080E   24128.33540185 -.00000065  00000+0  21625-3 0  9995
2 38044  51.9861 155.2329 0000387  58.4085 316.3593 12.62262949572362
GLOBALSTAR M086         
1 38045U 11080F   24128.79241028 -.00000074  00000+0  16707-3 0  9995
2 38045  51.9872 154.3606 0001058 136.2154  36.3453 12.62270564572367
GLOBALSTAR M097         
1 39072U 13005A   24128.54369099 -.00000123  00000+0 -10874-3 0  9992
2 39072  52.0054  69.2523 0000779  71.7475 288.3477 12.62262517519581
GLOBALSTAR M093         
1 39073U 13005B   24128.51703744 -.00000110  00000+0 -33777-4 0  9993
2 39073  51.9821  63.2842 0000921  70.9550 289.1416 12.62263767519652
GLOBALSTAR M094         
1 39074U 13005C   24128.75462647 -.00000075  00000+0  16216-3 0  9991
2 39074  51.9973 336.5403 0001080  93.8980 266.2010 12.62265464521170
GLOBALSTAR M096         
1 39075U 13005D   24128.84692268 -.00000084  00000+0  11268-3 0  9998
2 39075  52.0097  24.4550 0001083  76.8230 283.2757 12.62265103520107
GLOBALSTAR M078         
1 39076U 13005E   24128.66269797 -.00000109  00000+0 -28644-4 0  9992
2 39076  51.9852 110.0800 0001201  18.0462 342.0447 12.62268535518707
GLOBALSTAR M095         
1 39077U 13005F   24128.68829148 -.00000112  00000+0 -44844-4 0  9991
2 39077  51.9784 107.3945 0000997  44.7588 315.3359 12.62265933518565
GLOBALSTAR M087         
1 52888U 22064A   24128.90790162 -.00000076  00000+0  98825-4 0  9995
2 52888  51.9772 348.8334 0008585 261.9294  98.0632 13.37572443 92138
